[{"OBJECT_NAME":"ISS (UNITY)","OBJECT_ID":"1998-069F","EPOCH":"2026-03-09T16:57:57.785184","MEAN_MOTION":15.485472,"ECCENTRICITY":0.00080196,"INCLINATION":51.6323,"RA_OF_ASC_NODE":72.271,"ARG_OF_PERICENTER":174.6781,"MEAN_ANOMALY":185.4294,"EPHEMERIS_TYPE":0,"CLASSIFICATION_TYPE":"U","NORAD_CAT_ID":25575,"ELEMENT_SET_NO":999,"REV_AT_EPOCH":55441,"BSTAR":0.0001550955,"MEAN_MOTION_DOT":7.976e-5,"MEAN_MOTION_DDOT":0},{"OBJECT_NAME":"YAOGAN-35 02B","OBJECT_ID":"2022-068B","EPOCH":"2026-03-09T22:54:15.556608","MEAN_MOTION":15.47770078,"ECCENTRICITY":0.00054717,"INCLINATION":34.9994,"RA_OF_ASC_NODE":351.8421,"ARG_OF_PERICENTER":267.7559,"MEAN_ANOMALY":92.2537,"EPHEMERIS_TYPE":0,"CLASSIFICATION_TYPE":"U","NORAD_CAT_ID":52908,"ELEMENT_SET_NO":999,"REV_AT_EPOCH":20725,"BSTAR":0.001158139,"MEAN_MOTION_DOT":0.00062371,"MEAN_MOTION_DDOT":0}]
